ORBCOMM FM114           
1 41179U 15081A   25049.93649614  .00001443  00000+0  34847-3 0  9999
2 41179  47.0024 125.2562 0002288 199.8524 160.2273 14.57876687487214
ORBCOMM FM119           
1 41180U 15081B   25049.64433799  .00001592  00000+0  38139-3 0  9997
2 41180  47.0015  35.9024 0001801 261.5287  98.5394 14.57793840488429
ORBCOMM FM105           
1 41181U 15081C   25049.92778354  .00000834  00000+0  28155-3 0  9993
2 41181  47.0027  28.0815 0001148 180.4692 179.6187 14.45037350483641
ORBCOMM FM110           
1 41182U 15081D   25049.91204795  .00002295  00000+0  53271-3 0  9996
2 41182  47.0006 124.7395 0002860 299.6587  60.4014 14.57858154487088
ORBCOMM FM118           
1 41183U 15081E   25049.89540400  .00002346  00000+0  54479-3 0  9998
2 41183  47.0030 125.2491 0003350 298.1819  61.8728 14.57781169487185
ORBCOMM FM112           
1 41184U 15081F   25049.96360641  .00001700  00000+0  40475-3 0  9998
2 41184  47.0000  33.5643 0001185 250.0118 110.0640 14.57799581488410
ORBCOMM FM113           
1 41185U 15081G   25049.94037331  .00001563  00000+0  37498-3 0  9992
2 41185  47.0018  33.9803 0001456 257.8366 102.2356 14.57791560488396
